HAWK-11C                
1 62381U 24247E   26068.51221537  .00009223  00000+0  33290-3 0  9992
2 62381  45.0045 114.8762 0005900 329.7040  30.3502 15.28848020 67743
STARLINK-35527          
1 66092U 25236G   26068.38276250  .00019631  00000+0  67299-3 0  9991
2 66092  53.1581 105.5807 0000990  91.5245 268.5869 15.30209333 22892
